H-2A R/B                
1 38341U 12025E   25308.80525433  .00004251  00000+0  39672-3 0  9998
2 38341  98.4529 261.1350 0045725   3.0597 357.0892 14.94026765729560
SHIJIAN-16 (SJ-16)      
1 39358U 13057A   25308.91518572  .00002330  00000+0  23340-3 0  9992
2 39358  74.9739  61.2095 0016126  52.7999 307.4657 14.91776617652890
SL-4 R/B                
1 39679U 14021B   25308.81432221  .00016429  00000+0  40433-3 0  9991
2 39679  51.6078 224.7177 0104831   9.6613 350.6352 15.35216713637065
ALOS-2                  
1 39766U 14029A   25308.93624940  .00002051  00000+0  28146-3 0  9993
2 39766  97.9239  44.3199 0001224 101.5232 258.6117 14.79467775618423
YAOGAN-29               
1 41038U 15069A   25308.96406757  .00000525  00000+0  71651-4 0  9994
2 41038  98.0261 332.0069 0002545  61.6009 298.5461 14.82817085537391
ASTRO-H (HITOMI)        
1 41337U 16012A   25308.72645743  .00003504  00000+0  21035-3 0  9999
2 41337  30.9992  82.3635 0009882 155.6789 204.4316 15.08999274533338
HXMT (HUIYAN)           
1 42758U 17034A   25308.97116899  .00006077  00000+0  32204-3 0  9992
2 42758  43.0153 349.1250 0032681 169.0800 191.0764 15.15616547463600
CZ-2C R/B               
1 43521U 18054D   25308.64303378  .00080507  00000+0  74390-3 0  9990
2 43521  35.1352  77.6247 0024723 134.3255 225.9507 15.65926967409065
SAOCOM 1A               
1 43641U 18076A   25309.00104100  .00000525  00000+0  72496-4 0  9998
2 43641  97.8871 133.9694 0001353  90.7480 269.3889 14.82147374382891
H-2A R/B                
1 43682U 18084L   25308.78912154  .00016654  00000+0  47866-3 0  9994
2 43682  98.8802 135.0595 0029361  95.0249 265.4342 15.35492279386570
SAOCOM 1B               
1 46265U 20059A   25309.09981551  .00000537  00000+0  74083-4 0  9996
2 46265  97.8863 133.1697 0001432  91.0331 269.1046 14.82126849280297
CSS (TIANHE)            
1 48274U 21035A   25308.86414658  .00028084  00000+0  33527-3 0  9990
2 48274  41.4668 246.7216 0006228 323.7739  36.2677 15.60384612258110
