CCSDS_OMM_VERS = 2.0
CREATION_DATE  = 
ORIGINATOR     = 

OBJECT_NAME    = H-2A R/B
OBJECT_ID      = 2012-025E
CENTER_NAME    = EARTH
REF_FRAME      = TEME
TIME_SYSTEM    = UTC
MEAN_ELEMENT_THEORY = SGP/SGP4

EPOCH          = 2025-11-04T19:19:33.974112
MEAN_MOTION    = 14.94026765
ECCENTRICITY   = .0045725
INCLINATION    = 98.4529
RA_OF_ASC_NODE = 261.1350
ARG_OF_PERICENTER = 3.0597
MEAN_ANOMALY   = 357.0892

EPHEMERIS_TYPE = 0
CLASSIFICATION_TYPE = U
NORAD_CAT_ID   = 38341
ELEMENT_SET_NO = 999
REV_AT_EPOCH   = 72956
BSTAR          = .39672159E-3
MEAN_MOTION_DOT = .4251E-4
MEAN_MOTION_DDOT = 0

CCSDS_OMM_VERS = 2.0
CREATION_DATE  = 
ORIGINATOR     = 

OBJECT_NAME    = SHIJIAN-16 (SJ-16)
OBJECT_ID      = 2013-057A
CENTER_NAME    = EARTH
REF_FRAME      = TEME
TIME_SYSTEM    = UTC
MEAN_ELEMENT_THEORY = SGP/SGP4

EPOCH          = 2025-11-04T21:57:52.046208
MEAN_MOTION    = 14.91776617
ECCENTRICITY   = .00161263
INCLINATION    = 74.9739
RA_OF_ASC_NODE = 61.2095
ARG_OF_PERICENTER = 52.7999
MEAN_ANOMALY   = 307.4657

EPHEMERIS_TYPE = 0
CLASSIFICATION_TYPE = U
NORAD_CAT_ID   = 39358
ELEMENT_SET_NO = 999
REV_AT_EPOCH   = 65289
BSTAR          = .23339998E-3
MEAN_MOTION_DOT = .233E-4
MEAN_MOTION_DDOT = 0

CCSDS_OMM_VERS = 2.0
CREATION_DATE  = 
ORIGINATOR     = 

OBJECT_NAME    = SL-4 R/B
OBJECT_ID      = 2014-021B
CENTER_NAME    = EARTH
REF_FRAME      = TEME
TIME_SYSTEM    = UTC
MEAN_ELEMENT_THEORY = SGP/SGP4

EPOCH          = 2025-11-04T19:32:37.438944
MEAN_MOTION    = 15.35216713
ECCENTRICITY   = .01048319
INCLINATION    = 51.6078
RA_OF_ASC_NODE = 224.7177
ARG_OF_PERICENTER = 9.6613
MEAN_ANOMALY   = 350.6352

EPHEMERIS_TYPE = 0
CLASSIFICATION_TYPE = U
NORAD_CAT_ID   = 39679
ELEMENT_SET_NO = 999
REV_AT_EPOCH   = 63706
BSTAR          = .40432638E-3
MEAN_MOTION_DOT = .16429E-3
MEAN_MOTION_DDOT = 0

CCSDS_OMM_VERS = 2.0
CREATION_DATE  = 
ORIGINATOR     = 

OBJECT_NAME    = ALOS-2
OBJECT_ID      = 2014-029A
CENTER_NAME    = EARTH
REF_FRAME      = TEME
TIME_SYSTEM    = UTC
MEAN_ELEMENT_THEORY = SGP/SGP4

EPOCH          = 2025-11-04T22:28:11.948160
MEAN_MOTION    = 14.79467775
ECCENTRICITY   = .0001224
INCLINATION    = 97.9239
RA_OF_ASC_NODE = 44.3199
ARG_OF_PERICENTER = 101.5232
MEAN_ANOMALY   = 258.6117

EPHEMERIS_TYPE = 0
CLASSIFICATION_TYPE = U
NORAD_CAT_ID   = 39766
ELEMENT_SET_NO = 999
REV_AT_EPOCH   = 61842
BSTAR          = .28146148E-3
MEAN_MOTION_DOT = .2051E-4
MEAN_MOTION_DDOT = 0

CCSDS_OMM_VERS = 2.0
CREATION_DATE  = 
ORIGINATOR     = 

OBJECT_NAME    = YAOGAN-29
OBJECT_ID      = 2015-069A
CENTER_NAME    = EARTH
REF_FRAME      = TEME
TIME_SYSTEM    = UTC
MEAN_ELEMENT_THEORY = SGP/SGP4

EPOCH          = 2025-11-04T23:08:15.438048
MEAN_MOTION    = 14.82817085
ECCENTRICITY   = .00025453
INCLINATION    = 98.0261
RA_OF_ASC_NODE = 332.0069
ARG_OF_PERICENTER = 61.6009
MEAN_ANOMALY   = 298.5461

EPHEMERIS_TYPE = 0
CLASSIFICATION_TYPE = U
NORAD_CAT_ID   = 41038
ELEMENT_SET_NO = 999
REV_AT_EPOCH   = 53739
BSTAR          = .71651118E-4
MEAN_MOTION_DOT = .525E-5
MEAN_MOTION_DDOT = 0

CCSDS_OMM_VERS = 2.0
CREATION_DATE  = 
ORIGINATOR     = 

OBJECT_NAME    = ASTRO-H (HITOMI)
OBJECT_ID      = 2016-012A
CENTER_NAME    = EARTH
REF_FRAME      = TEME
TIME_SYSTEM    = UTC
MEAN_ELEMENT_THEORY = SGP/SGP4

EPOCH          = 2025-11-04T17:26:05.921952
MEAN_MOTION    = 15.08999274
ECCENTRICITY   = .00098828
INCLINATION    = 30.9992
RA_OF_ASC_NODE = 82.3635
ARG_OF_PERICENTER = 155.6789
MEAN_ANOMALY   = 204.4316

EPHEMERIS_TYPE = 0
CLASSIFICATION_TYPE = U
NORAD_CAT_ID   = 41337
ELEMENT_SET_NO = 999
REV_AT_EPOCH   = 53333
BSTAR          = .21034838E-3
MEAN_MOTION_DOT = .3504E-4
MEAN_MOTION_DDOT = 0

CCSDS_OMM_VERS = 2.0
CREATION_DATE  = 
ORIGINATOR     = 

OBJECT_NAME    = HXMT (HUIYAN)
OBJECT_ID      = 2017-034A
CENTER_NAME    = EARTH
REF_FRAME      = TEME
TIME_SYSTEM    = UTC
MEAN_ELEMENT_THEORY = SGP/SGP4

EPOCH          = 2025-11-04T23:18:29.000736
MEAN_MOTION    = 15.15616547
ECCENTRICITY   = .00326817
INCLINATION    = 43.0153
RA_OF_ASC_NODE = 349.1250
ARG_OF_PERICENTER = 169.0800
MEAN_ANOMALY   = 191.0764

EPHEMERIS_TYPE = 0
CLASSIFICATION_TYPE = U
NORAD_CAT_ID   = 42758
ELEMENT_SET_NO = 999
REV_AT_EPOCH   = 46360
BSTAR          = .32203576E-3
MEAN_MOTION_DOT = .6077E-4
MEAN_MOTION_DDOT = 0

CCSDS_OMM_VERS = 2.0
CREATION_DATE  = 
ORIGINATOR     = 

OBJECT_NAME    = CZ-2C R/B
OBJECT_ID      = 2018-054D
CENTER_NAME    = EARTH
REF_FRAME      = TEME
TIME_SYSTEM    = UTC
MEAN_ELEMENT_THEORY = SGP/SGP4

EPOCH          = 2025-11-04T15:25:58.118592
MEAN_MOTION    = 15.65926967
ECCENTRICITY   = .0024723
INCLINATION    = 35.1352
RA_OF_ASC_NODE = 77.6247
ARG_OF_PERICENTER = 134.3255
MEAN_ANOMALY   = 225.9507

EPHEMERIS_TYPE = 0
CLASSIFICATION_TYPE = U
NORAD_CAT_ID   = 43521
ELEMENT_SET_NO = 999
REV_AT_EPOCH   = 40906
BSTAR          = .7439E-3
MEAN_MOTION_DOT = .80507E-3
MEAN_MOTION_DDOT = 0

CCSDS_OMM_VERS = 2.0
CREATION_DATE  = 
ORIGINATOR     = 

OBJECT_NAME    = SAOCOM 1A
OBJECT_ID      = 2018-076A
CENTER_NAME    = EARTH
REF_FRAME      = TEME
TIME_SYSTEM    = UTC
MEAN_ELEMENT_THEORY = SGP/SGP4

EPOCH          = 2025-11-05T00:01:29.942400
MEAN_MOTION    = 14.82147374
ECCENTRICITY   = .00013538
INCLINATION    = 97.8871
RA_OF_ASC_NODE = 133.9694
ARG_OF_PERICENTER = 90.7480
MEAN_ANOMALY   = 269.3889

EPHEMERIS_TYPE = 0
CLASSIFICATION_TYPE = U
NORAD_CAT_ID   = 43641
ELEMENT_SET_NO = 999
REV_AT_EPOCH   = 38289
BSTAR          = .7249551E-4
MEAN_MOTION_DOT = .525E-5
MEAN_MOTION_DDOT = 0

CCSDS_OMM_VERS = 2.0
CREATION_DATE  = 
ORIGINATOR     = 

OBJECT_NAME    = H-2A R/B
OBJECT_ID      = 2018-084L
CENTER_NAME    = EARTH
REF_FRAME      = TEME
TIME_SYSTEM    = UTC
MEAN_ELEMENT_THEORY = SGP/SGP4

EPOCH          = 2025-11-04T18:56:20.101056
MEAN_MOTION    = 15.35492279
ECCENTRICITY   = .00293613
INCLINATION    = 98.8802
RA_OF_ASC_NODE = 135.0595
ARG_OF_PERICENTER = 95.0249
MEAN_ANOMALY   = 265.4342

EPHEMERIS_TYPE = 0
CLASSIFICATION_TYPE = U
NORAD_CAT_ID   = 43682
ELEMENT_SET_NO = 999
REV_AT_EPOCH   = 38657
BSTAR          = .47865952E-3
MEAN_MOTION_DOT = .16654E-3
MEAN_MOTION_DDOT = 0

CCSDS_OMM_VERS = 2.0
CREATION_DATE  = 
ORIGINATOR     = 

OBJECT_NAME    = SAOCOM 1B
OBJECT_ID      = 2020-059A
CENTER_NAME    = EARTH
REF_FRAME      = TEME
TIME_SYSTEM    = UTC
MEAN_ELEMENT_THEORY = SGP/SGP4

EPOCH          = 2025-11-05T02:23:44.060064
MEAN_MOTION    = 14.82126849
ECCENTRICITY   = .0001432
INCLINATION    = 97.8863
RA_OF_ASC_NODE = 133.1697
ARG_OF_PERICENTER = 91.0331
MEAN_ANOMALY   = 269.1046

EPHEMERIS_TYPE = 0
CLASSIFICATION_TYPE = U
NORAD_CAT_ID   = 46265
ELEMENT_SET_NO = 999
REV_AT_EPOCH   = 28029
BSTAR          = .74083E-4
MEAN_MOTION_DOT = .537E-5
MEAN_MOTION_DDOT = 0

CCSDS_OMM_VERS = 2.0
CREATION_DATE  = 
ORIGINATOR     = 

OBJECT_NAME    = CSS (TIANHE)
OBJECT_ID      = 2021-035A
CENTER_NAME    = EARTH
REF_FRAME      = TEME
TIME_SYSTEM    = UTC
MEAN_ELEMENT_THEORY = SGP/SGP4

EPOCH          = 2025-11-04T20:44:22.264512
MEAN_MOTION    = 15.60384612
ECCENTRICITY   = .00062289
INCLINATION    = 41.4668
RA_OF_ASC_NODE = 246.7216
ARG_OF_PERICENTER = 323.7739
MEAN_ANOMALY   = 36.2677

EPHEMERIS_TYPE = 0
CLASSIFICATION_TYPE = U
NORAD_CAT_ID   = 48274
ELEMENT_SET_NO = 999
REV_AT_EPOCH   = 25811
BSTAR          = .33527055E-3
MEAN_MOTION_DOT = .28084E-3
MEAN_MOTION_DDOT = 0

